{"type": "FeatureCollection", "features": [ {"type": "Feature", "properties": {"norad_id": 67000, "name": "2025-292H", "group": "last-30-days", "lat": 15.606997411547331, "lon": -109.4234745484199, "alt_km": 550.8439453798155, "timestamp": "2025-12-21T22:41:40.167576+00:00", "meta": {"OBJECT_NAME": "2025-292H", "OBJECT_ID": "2025-292H", "EPOCH": "2025-12-21T13:59:15.586656", "MEAN_MOTION": 15.04991384, "ECCENTRICITY": 0.00143741, "INCLINATION": 97.6571, "RA_OF_ASC_NODE": 68.0631, "ARG_OF_PERICENTER": 246.7979, "MEAN_ANOMALY": 113.1733, "EPHEMERIS_TYPE": 0, "CLASSIFICATION_TYPE": "U", "NORAD_CAT_ID": 67000, "ELEMENT_SET_NO": 999, "REV_AT_EPOCH": 159, "BSTAR": 0.00033341121, "MEAN_MOTION_DOT": 4.678e-05, "MEAN_MOTION_DDOT": 0}, "tle": {"line1": "1 67000U 25292H   25355.58281929  .00004678  00000+0  33341-3 0  9998", "line2": "2 67000  97.6571  68.0631 0014374 246.7979 113.1733 15.04991384  1595"}}, "geometry": {"type": "Point", "coordinates": [-109.4234745484199, 15.606997411547331]}}, {"type": "Feature", "properties": {"norad_id": 67001, "name": "2025-292J", "group": "last-30-days", "lat": 40.410727939659346, "lon": -105.01521229449662, "alt_km": 551.2127429987913, "timestamp": "2025-12-21T22:41:40.167585+00:00", "meta": {"OBJECT_NAME": "2025-292J", "OBJECT_ID": "2025-292J", "EPOCH": "2025-12-21T14:05:43.431936", "MEAN_MOTION": 15.0438892, "ECCENTRICITY": 0.00145596, "INCLINATION": 97.6552, "RA_OF_ASC_NODE": 68.0544, "ARG_OF_PERICENTER": 235.8172, "MEAN_ANOMALY": 124.1675, "EPHEMERIS_TYPE": 0, "CLASSIFICATION_TYPE": "U", "NORAD_CAT_ID": 67001, "ELEMENT_SET_NO": 999, "REV_AT_EPOCH": 172, "BSTAR": 0.00028952492, "MEAN_MOTION_DOT": 3.989e-05, "MEAN_MOTION_DDOT": 0}, "tle": {"line1": "1 67001U 25292J   25355.58730824  .00003989  00000+0  28952-3 0  9998", "line2": "2 67001  97.6552  68.0544 0014559 235.8172 124.1675 15.04388920  1725"}}, "geometry": {"type": "Point", "coordinates": [-105.01521229449662, 40.410727939659346]}}, {"type": "Feature", "properties": {"norad_id": 67002, "name": "ZK-1A R/B", "group": "last-30-days", "lat": 32.93618293131181, "lon": -105.47876500134339, "alt_km": 534.7407283781886, "timestamp": "2025-12-21T22:41:40.167595+00:00", "meta": {"OBJECT_NAME": "ZK-1A R/B", "OBJECT_ID": "2025-292K", "EPOCH": "2025-12-21T11:16:07.595040", "MEAN_MOTION": 15.57277513, "ECCENTRICITY": 0.02102574, "INCLINATION": 97.7208, "RA_OF_ASC_NODE": 68.963, "ARG_OF_PERICENTER": 333.8006, "MEAN_ANOMALY": 25.2727, "EPHEMERIS_TYPE": 0, "CLASSIFICATION_TYPE": "U", "NORAD_CAT_ID": 67002, "ELEMENT_SET_NO": 999, "REV_AT_EPOCH": 175, "BSTAR": 0.00068957504, "MEAN_MOTION_DOT": 0.0014528, "MEAN_MOTION_DDOT": 7.795931e-06}, "tle": {"line1": "1 67002U 25292K   25355.46953235  .00145280  77959-5  68958-3 0  9993", "line2": "2 67002  97.7208  68.9630 0210257 333.8006  25.2727 15.57277513  1753"}}, "geometry": {"type": "Point", "coordinates": [-105.47876500134339, 32.93618293131181]}}, {"type": "Feature", "properties": {"norad_id": 67003, "name": "STARLINK-35660", "group": "last-30-days", "lat": -8.195035292587416, "lon": 120.08546776781887, "alt_km": 307.44581060277415, "timestamp": "2025-12-21T22:41:40.167606+00:00", "meta": {"OBJECT_NAME": "STARLINK-35660", "OBJECT_ID": "2025-293A", "EPOCH": "2025-12-21T14:00:01.999872", "MEAN_MOTION": 15.89380868, "ECCENTRICITY": 0.00036082, "INCLINATION": 69.9937, "RA_OF_ASC_NODE": 298.1254, "ARG_OF_PERICENTER": 272.6137, "MEAN_ANOMALY": 4.016, "EPHEMERIS_TYPE": 0, "CLASSIFICATION_TYPE": "U", "NORAD_CAT_ID": 67003, "ELEMENT_SET_NO": 999, "REV_AT_EPOCH": 159, "BSTAR": -0.00030623895, "MEAN_MOTION_DOT": -0.00090418, "MEAN_MOTION_DDOT": 6.566785e-06}, "tle": {"line1": "1 67003U 25293A   25355.58335648 -.00090418  65668-5 -30624-3 0  9997", "line2": "2 67003  69.9937 298.1254 0003608 272.6137   4.0160 15.89380868  1599"}}, "geometry": {"type": "Point", "coordinates": [120.08546776781887, -8.195035292587416]}}, {"type": "Feature", "properties": {"norad_id": 67004, "name": "STARLINK-35913", "group": "last-30-days", "lat": -10.348298660616075, "lon": 120.8895788758445, "alt_km": 307.0913445141714, "timestamp": "2025-12-21T22:41:40.167618+00:00", "meta": {"OBJECT_NAME": "STARLINK-35913", "OBJECT_ID": "2025-293B", "EPOCH": "2025-12-21T14:00:01.999872", "MEAN_MOTION": 15.89415638, "ECCENTRICITY": 0.00043229, "INCLINATION": 69.9936, "RA_OF_ASC_NODE": 298.1225, "ARG_OF_PERICENTER": 263.7932, "MEAN_ANOMALY": 15.1177, "EPHEMERIS_TYPE": 0, "CLASSIFICATION_TYPE": "U", "NORAD_CAT_ID": 67004, "ELEMENT_SET_NO": 999, "REV_AT_EPOCH": 159, "BSTAR": -0.00048244755, "MEAN_MOTION_DOT": -0.00142006, "MEAN_MOTION_DDOT": 1.0479976e-05}, "tle": {"line1": "1 67004U 25293B   25355.58335648 -.00142006  10480-4 -48245-3 0  9998", "line2": "2 67004  69.9936 298.1225 0004322 263.7932  15.1177 15.89415638  1590"}}, "geometry": {"type": "Point", "coordinates": [120.8895788758445, -10.348298660616075]}}, {"type": "Feature", "properties": {"norad_id": 67005, "name": "STARLINK-36148", "group": "last-30-days", "lat": -12.617798658950155, "lon": 121.75076457109081, "alt_km": 307.22365965509107, "timestamp": "2025-12-21T22:41:40.167629+00:00", "meta": {"OBJECT_NAME": "STARLINK-36148", "OBJECT_ID": "2025-293C", "EPOCH": "2025-12-21T14:00:01.999872", "MEAN_MOTION": 15.89444351, "ECCENTRICITY": 0.00042269, "INCLINATION": 69.9938, "RA_OF_ASC_NODE": 298.1202, "ARG_OF_PERICENTER": 264.3656, "MEAN_ANOMALY": 16.9379, "EPHEMERIS_TYPE": 0, "CLASSIFICATION_TYPE": "U", "NORAD_CAT_ID": 67005, "ELEMENT_SET_NO": 999, "REV_AT_EPOCH": 159, "BSTAR": -0.00054631036, "MEAN_MOTION_DOT": -0.00160861, "MEAN_MOTION_DDOT": 1.2334078e-05}, "tle": {"line1": "1 67005U 25293C   25355.58335648 -.00160861  12334-4 -54631-3 0  9994", "line2": "2 67005  69.9938 298.1202 0004226 264.3656  16.9379 15.89444351  1598"}}, "geometry": {"type": "Point", "coordinates": [121.75076457109081, -12.617798658950155]}}, {"type": "Feature", "properties": {"norad_id": 67006, "name": "STARLINK-36156", "group": "last-30-days", "lat": -17.92561201820567, "lon": 123.83391739479757, "alt_km": 307.41880151910755, "timestamp": "2025-12-21T22:41:40.167640+00:00", "meta": {"OBJECT_NAME": "STARLINK-36156", "OBJECT_ID": "2025-293D", "EPOCH": "2025-12-21T14:00:01.999872", "MEAN_MOTION": 15.89533656, "ECCENTRICITY": 0.00043772, "INCLINATION": 69.9937, "RA_OF_ASC_NODE": 298.1129, "ARG_OF_PERICENTER": 264.8668, "MEAN_ANOMALY": 22.0471, "EPHEMERIS_TYPE": 0, "CLASSIFICATION_TYPE": "U", "NORAD_CAT_ID": 67006, "ELEMENT_SET_NO": 999, "REV_AT_EPOCH": 159, "BSTAR": -0.00088455367, "MEAN_MOTION_DOT": -0.00260822, "MEAN_MOTION_DDOT": 2.5840865e-05}, "tle": {"line1": "1 67006U 25293D   25355.58335648 -.00260822  25841-4 -88455-3 0  9991", "line2": "2 67006  69.9937 298.1129 0004377 264.8668  22.0471 15.89533656  1599"}}, "geometry": {"type": "Point", "coordinates": [123.83391739479757, -17.92561201820567]}}, {"type": "Feature", "properties": {"norad_id": 67007, "name": "STARLINK-36123", "group": "last-30-days", "lat": -15.5221621300339, "lon": 122.87624671158625, "alt_km": 307.61839361491457, "timestamp": "2025-12-21T22:41:40.167649+00:00", "meta": {"OBJECT_NAME": "STARLINK-36123", "OBJECT_ID": "2025-293E", "EPOCH": "2025-12-21T14:00:01.999872", "MEAN_MOTION": 15.89482363, "ECCENTRICITY": 0.00041867, "INCLINATION": 69.9935, "RA_OF_ASC_NODE": 298.1159, "ARG_OF_PERICENTER": 270.4459, "MEAN_ANOMALY": 13.9279, "EPHEMERIS_TYPE": 0, "CLASSIFICATION_TYPE": "U", "NORAD_CAT_ID": 67007, "ELEMENT_SET_NO": 999, "REV_AT_EPOCH": 159, "BSTAR": -0.00064876366, "MEAN_MOTION_DOT": -0.00191147, "MEAN_MOTION_DDOT": 1.5779026e-05}, "tle": {"line1": "1 67007U 25293E   25355.58335648 -.00191147  15779-4 -64876-3 0  9995", "line2": "2 67007  69.9935 298.1159 0004186 270.4459  13.9279 15.89482363  1593"}}, "geometry": {"type": "Point", "coordinates": [122.87624671158625, -15.5221621300339]}}, {"type": "Feature", "properties": {"norad_id": 67008, "name": "STARLINK-36163", "group": "last-30-days", "lat": -21.052979372694875, "lon": 125.12369121300846, "alt_km": 307.57998908293484, "timestamp": "2025-12-21T22:41:40.167661+00:00", "meta": {"OBJECT_NAME": "STARLINK-36163", "OBJECT_ID": "2025-293F", "EPOCH": "2025-12-21T14:00:01.999872", "MEAN_MOTION": 15.89586468, "ECCENTRICITY": 0.00043654, "INCLINATION": 69.9937, "RA_OF_ASC_NODE": 298.1092, "ARG_OF_PERICENTER": 265.1841, "MEAN_ANOMALY": 25.0566, "EPHEMERIS_TYPE": 0, "CLASSIFICATION_TYPE": "U", "NORAD_CAT_ID": 67008, "ELEMENT_SET_NO": 999, "REV_AT_EPOCH": 159, "BSTAR": -0.0011610029, "MEAN_MOTION_DOT": -0.00342785, "MEAN_MOTION_DDOT": 4.1387672e-05}, "tle": {"line1": "1 67008U 25293F   25355.58335648 -.00342785  41388-4 -11610-2 0  9994", "line2": "2 67008  69.9937 298.1092 0004365 265.1841  25.0566 15.89586468  1591"}}, "geometry": {"type": "Point", "coordinates": [125.12369121300846, -21.052979372694875]}}, {"type": "Feature", "properties": {"norad_id": 67009, "name": "STARLINK-36118", "group": "last-30-days", "lat": -23.634174643703602, "lon": 126.23263655774863, "alt_km": 308.1270960159118, "timestamp": "2025-12-21T22:41:40.167671+00:00", "meta": {"OBJECT_NAME": "STARLINK-36118", "OBJECT_ID": "2025-293G", "EPOCH": "2025-12-21T14:00:01.999872", "MEAN_MOTION": 15.8964235, "ECCENTRICITY": 0.00042566, "INCLINATION": 69.9936, "RA_OF_ASC_NODE": 298.1059, "ARG_OF_PERICENTER": 273.9957, "MEAN_ANOMALY": 18.9954, "EPHEMERIS_TYPE": 0, "CLASSIFICATION_TYPE": "U", "NORAD_CAT_ID": 67009, "ELEMENT_SET_NO": 999, "REV_AT_EPOCH": 153, "BSTAR": -0.001459945, "MEAN_MOTION_DOT": -0.004318, "MEAN_MOTION_DDOT": 6.2655186e-05}, "tle": {"line1": "1 67009U 25293G   25355.58335648 -.00431800  62655-4 -14599-2 0  9991", "line2": "2 67009  69.9936 298.1059 0004256 273.9957  18.9954 15.89642350  1537"}}, "geometry": {"type": "Point", "coordinates": [126.23263655774863, -23.634174643703602]}}]}